01165   10.75  0.15 K239D 254.40594   96.68960  203.71001   12.79796  0.2106452  0.17806253   3.1291113  0 E2024-A34  4529  42 1909-2024 0.50 M-v 3Ek MPCLINUX   0000   (1165) Imprinetta         20240103
01166   10.64  0.15 K239D 354.46586  189.91727  106.65897   18.92372  0.2083360  0.24413159   2.5354404  0 E2024-A26 13846  38 1930-2023 0.29 M-v 3Ek MPCLINUX   0000   (1166) Sakuntala          20231129
01167    9.88  0.15 K239D 296.24169   72.84713  223.34586    5.74683  0.0679011  0.15607568   3.4164828  0 E2024-A26  6232  53 1930-2023 0.44 M-v 3Ek MPCLINUX   0000   (1167) Dubiago            20230828
01168   12.56  0.15 K239D 292.32264  122.94637  218.59745   12.72769  0.2174645  0.24169889   2.5524247  0 E2024-A34  3614  32 1930-2023 0.49 M-v 3Ek MPCLINUX   0000   (1168) Brandia            20230929
01169   12.85  0.15 K239D  50.62309  176.98249  254.97583    4.05354  0.1543747  0.27926200   2.3180786  0 E2024-A55  4033  35 1930-2024 0.55 M-v 3Ek MPCLINUX   0000   (1169) Alwine             20240105
01170   12.42  0.15 K239D  41.87552   59.35401    0.84987   22.16790  0.3012114  0.27799560   2.3251132  0 E2024-A55  6083  33 1930-2024 0.37 M-v 3Ek MPCLINUX   0005   (1170) Siva               20240105
01171   10.08  0.15 K239D 161.99651  292.41680  121.49686    3.08537  0.1947997  0.17415921   3.1756923  0 E2024-A34  9504  52 1904-2023 0.39 M-v 3Ek MPCLINUX   0000   (1171) Rusthawelia        20230828
01172    8.24  0.15 K239D  43.23451   51.56178  247.27147   16.65328  0.1067519  0.08237053   5.2314427  0 E2024-A55  4731  51 1930-2024 0.45 M-v 3Ek MPCLINUX   0009   (1172) Aneas              20240105
01173    8.99  0.15 K239D 345.78581   41.45891  283.91058    6.92643  0.1388544  0.08129608   5.2774360  0 MPO775949  5174  48 1930-2023 0.48 M-v 3Ek MPCLINUX   0009   (1173) Anchises           20231108
01174   11.53  0.15 K239D 277.89258  353.74384    0.88954   10.06273  0.1100456  0.18742484   3.0240197  0 E2024-A34  4885  38 1930-2023 0.47 M-v 3Ek MPCLINUX   0000   (1174) Marmara            20231009
01175    9.97  0.15 K239D  80.09744  100.08650  236.97580   16.34523  0.0707270  0.17097323   3.2150221  0 E2024-A65  4462  41 1907-2024 0.53 M-v 3Ek MPCLINUX   0000   (1175) Margo              20240106
01176   11.48  0.15 K239D 356.89416  155.39569  272.10559    6.64571  0.1428599  0.22303949   2.6928668  0 E2024-A65  4079  43 1927-2024 0.49 M-v 3Ek MPCLINUX   0000   (1176) Lucidor            20240106
01177    9.38  0.15 K239D 324.69579  255.29320  251.73424   15.01670  0.0344447  0.16103687   3.3459479  0 E2024-A65  4990  57 1930-2024 0.52 M-v 3Ek MPCLINUX   0000   (1177) Gonnessia          20240106
01178   12.07  0.15 K239D  28.86668  357.56936  169.94337    6.96639  0.1858518  0.22487286   2.6782104  0 E2024-A48  5121  37 1931-2023 0.49 M-v 3Ek MPCLINUX   0000   (1178) Irmela             20230727
01179   12.95  0.15 K239D 256.31084  234.07026    6.74033    8.71384  0.1736685  0.23288866   2.6163981  0 E2024-A65  5584  30 1931-2024 0.47 M-v 3Ek MPCLINUX   0000   (1179) Mally              20240106
01180    9.47  0.15 K239D 149.53888  205.41028   88.14393    7.18846  0.1552688  0.12401442   3.9824891  0 E2024-A65  8316  52 1907-2024 0.42 M-v 3Ek MPCLINUX   0008   (1180) Rita               20240106
01181   11.42  0.15 K239D 130.96724  156.43937  260.57273    5.59096  0.1933500  0.22648770   2.6654649  0 E2024-A48  6282  41 1930-2023 0.40 M-v 3Ek MPCLINUX   0000   (1181) Lilith             20230731
01182   11.80  0.15 K239D 246.09037   63.30719  336.30223    9.39141  0.1171240  0.29019596   2.2594798  0 E2024-A48 11751  44 1927-2023 0.30 M-v 3Ek MPCLINUX   0000   (1182) Ilona              20231030
01183   12.62  0.15 K239D 113.28644  205.27818   15.08925    2.79977  0.1295912  0.26786183   2.3833921  0 E2024-A55  9281  46 1930-2024 0.38 M-v 3Ek MPCLINUX   0000   (1183) Jutta              20240105
01184   11.13  0.15 K239D 138.15190  310.66526  355.69592   11.31121  0.0727075  0.22628258   2.6670755  0 E2024-A65  4063  37 1926-2024 0.53 M-v 3Ek MPCLINUX   0000   (1184) Gaea               20240106
01185   12.20  0.15 K239D 208.11727    2.54037   71.85586    5.69765  0.1053355  0.29451229   2.2373492  0 E2024-A48 16703  41 1927-2023 0.27 M-v 3Ek MPCLINUX   0000   (1185) Nikko              20231027
01186   10.01  0.15 K239D 303.17849  296.60695   42.95240   10.75076  0.1010983  0.18765164   3.0215827  0 E2024-A48 11605  48 1929-2023 0.34 M-v 3Ek MPCLINUX   0000   (1186) Turnera            20231030
01187   11.64  0.15 K239D 327.92959   74.89875  327.15585   10.69750  0.2238052  0.22986819   2.6392678  0 E2024-A55  6876  37 1929-2024 0.38 M-v 3Ek MPCLINUX   0000   (1187) Afra               20240105
01188   11.72  0.15 K239D 243.62879    7.09255    5.40634    4.81681  0.1802306  0.30395315   2.1907776  0 E2024-A34 10028  39 1930-2023 0.35 M-v 3Ek MPCLINUX   0000   (1188) Gothlandia         20230909
01189   10.03  0.15 K239D 175.35713   95.74223  275.17028    9.86285  0.1116935  0.19621390   2.9330279  0 E2024-A55  5584  47 1930-2024 0.47 M-v 3Ek MPCLINUX   0000   (1189) Terentia           20240105
01190   12.95  0.15 K239D 136.42197   41.56437   26.36084    3.16890  0.1304129  0.25983566   2.4322238  0 E2024-A48  7706  37 1909-2023 0.38 M-v 3Ek MPCLINUX   0000   (1190) Pelagia            20230806
01191   10.82  0.15 K239D 253.03828   58.96937  134.56135   18.45901  0.0480729  0.20041610   2.8918847  0 E2024-A48  5332  35 1931-2024 0.42 M-v 3Ek MPCLINUX   0000   (1191) Alfaterna          20240103
01192   12.79  0.15 K239D 173.66942  131.50779    1.24113   23.91145  0.2592918  0.27109212   2.3644209  0 E2024-A48  7319  26 1931-2023 0.34 M-v 3Ek MPCLINUX   0000   (1192) Prisma             20231206
01193   11.87  0.15 K239D 151.39573  185.11512   49.47956   14.14674  0.1220693  0.22847095   2.6500174  0 E2024-A48  5305  33 1931-2024 0.45 M-v 3Ek MPCLINUX   0000   (1193) Africa             20240103
01194   10.65  0.15 K239D 250.75653  246.68657  290.82962   10.84120  0.0897050  0.19789284   2.9164150  0 E2024-A65  3955  38 1931-2024 0.53 M-v 3Ek MPCLINUX   0000   (1194) Aletta             20240106
01195   13.26  0.15 K239D  69.77201  328.20675  281.24119    7.19100  0.2003019  0.29054808   2.2576540  0 E2024-A48  4414  28 1931-2024 0.49 M-v 3Ek MPCLINUX   0000   (1195) Orangia            20240103
01196   10.24  0.15 K239D  25.36436  262.67797  100.71401   17.66740  0.1807180  0.22801127   2.6535779  0 E2024-A65  4305  36 1912-2024 0.48 M-v 3Ek MPCLINUX   0000   (1196) Sheba              20240106
01197   10.22  0.15 K239D   5.64168  277.04792  255.61038   12.97730  0.2344504  0.20135878   2.8828519  0 MPO775950  4235  36 1925-2023 0.52 M-v 3Ek Pan        0000   (1197) Rhodesia           20230606
01198   14.43  0.15 K239D  90.17098   84.61280  259.48003    2.72580  0.3356197  0.29197819   2.2502759  0 E2024-A65  2484  28 1931-2024 0.62 M-v 3Ek MPCLINUX   0005   (1198) Atlantis           20240106
01199   10.39  0.15 K239D  18.65465  290.61013  235.50094    8.77991  0.0323559  0.18793114   3.0185860  0 E2024-A55  5419  50 1921-2024 0.47 M-v 3Ek MPCLINUX   0000   (1199) Geldonia           20240105
01200   10.96  0.15 K239D 157.39952   52.85459  204.61422    4.61530  0.1104340  0.18375790   3.0641172  0 E2024-A55  4991  48 1915-2024 0.49 M-v 3Ek MPCLINUX   0000   (1200) Imperatrix         20240105
01201   11.60  0.15 K239D 264.60597  166.78378  203.05966    7.00152  0.0390058  0.22235971   2.6983523  0 E2024-A34  7468  44 1907-2023 0.38 M-v 3Ek MPCLINUX   0000   (1201) Strenua            20231030
01202   10.07  0.15 K239D 256.79729  307.78404   49.82745    3.33374  0.1677399  0.12334986   3.9967803  0 E2024-A34  4106  41 1924-2023 0.52 M-v 3Ek MPCLINUX   0008   (1202) Marina             20230828
01203   11.71  0.15 K239D 258.54406  177.30013  224.50259    5.99755  0.2505953  0.20132151   2.8832078  0 MPO775950  4324  35 1926-2023 0.49 M-v 3Ek MPCLINUX   0000   (1203) Nanna              20231013
01204   12.06  0.15 K239D  26.89951  313.82789    7.53364    1.87877  0.2936117  0.28939495   2.2636473  0 E2024-A65  6042  38 1931-2024 0.46 M-v 3Ek MPCLINUX   0005   (1204) Renzia             20240106
01205   13.57  0.15 K239D 280.24902  349.48615   22.98378    8.84671  0.2719048  0.24396662   2.5365832  0 E2024-A55  2394  26 1931-2023 0.58 M-v 3Ek MPCLINUX   0000   (1205) Ebella             20230822
01206   11.68  0.15 K239D 122.68135  279.80937  324.39715   12.99290  0.0522096  0.20294153   2.8678434  0 E2024-A65  7160  34 1931-2024 0.35 M-v 3Ek MPCLINUX   0000   (1206) Numerowia          20240106
01207   11.02  0.15 K239D 176.37161   46.42676   19.98518   10.33857  0.0883915  0.18762038   3.0219182  0 E2024-A26  9625  39 1931-2023 0.34 M-v 3Ek MPCLINUX   0000   (1207) Ostenia            20230924
01208    9.11  0.15 K239D 353.41368  295.89358   48.55031   33.54353  0.0928410  0.08188023   5.2523058  0 E2024-A65  5400  39 1931-2024 0.40 M-v 3Ek MPCLINUX   0009   (1208) Troilus            20240105
01209   10.86  0.15 K239D 327.15544  176.76561   89.74108    6.93629  0.1271592  0.17449398   3.1716293  0 E2024-A26  6441  48 1927-2023 0.43 M-v 3Ek MPCLINUX   0000   (1209) Pumma              20230812
01210   10.03  0.15 K239D 221.29760  165.96622  106.56053   11.26389  0.0622159  0.18887828   3.0084863  0 E2024-A65  3990  42 1904-2024 0.55 M-v 3Ek MPCLINUX   0000   (1210) Morosovia          20240106
01211   11.03  0.15 K239D 181.29474  211.37072  129.72845   12.76597  0.1593870  0.19659251   2.9292611  0 E2024-A55  3916  45 1931-2024 0.56 M-v 3Ek MPCLINUX   0000   (1211) Bressole           20240105
01212    9.64  0.15 K239D 199.50635  347.99570  149.56122    7.59269  0.1895792  0.12564673   3.9479223  0 E2024-A55  5415  49 1931-2024 0.47 M-v 3Ek MPCLINUX   0008   (1212) Francette          20240105
01213   11.23  0.15 K239D 231.76846  110.63479  271.25036   13.10810  0.1286551  0.17740623   3.1368238  0 E2024-A55  4876  34 1931-2023 0.45 M-v 3Ek MPCLINUX   0000   (1213) Algeria            20230924
